OSCAR 7 (AO-7)          
1 07530U 74089B   26063.03780128 -.00000045  00000+0  10187-4 0  9999
2 07530 101.9969  75.1668 0012023 333.1147  36.6395 12.53696271347340
PHASE 3B (AO-10)        
1 14129U 83058B   26061.53393855 -.00000164  00000+0  00000+0 0  9997
2 14129  25.9320 237.4860 6049007  86.0782 336.7646  2.05874052293290
UOSAT 2 (UO-11)         
1 14781U 84021B   26062.83303503  .00002201  00000+0  23110-3 0  9991
2 14781  97.7938  29.6802 0007881 161.1655 198.9856 14.90481178241435
LUSAT (LO-19)           
1 20442U 90005G   26063.03935948  .00000219  00000+0  94890-4 0  9999
2 20442  98.8938  81.9063 0012121 150.1844 210.0033 14.34085341887326
EYESAT A (AO-27)        
1 22825U 93061C   26063.18293131  .00000168  00000+0  81158-4 0  9994
2 22825  98.6993 130.5887 0009192  53.8329 306.3702 14.30911007691988
ITAMSAT (IO-26)         
1 22826U 93061D   26063.12361684  .00000193  00000+0  89649-4 0  9999
2 22826  98.6942 130.4362 0009502  38.5246 321.6613 14.31334839692281
RADIO ROSTO (RS15)      
1 23439U 94085A   26063.10811864 -.00000010  00000+0  93098-3 0  9996
2 23439  64.8146 113.1611 0152464  23.0804 337.6876 11.27583849284052
JAS-2 (FO-29)           
1 24278U 96046B   26063.10181474 -.00000016  00000+0  19528-4 0  9997
2 24278  98.5389 286.2770 0350062   9.2611 351.4767 13.53268450458955
TECHSAT 1B (GO-32)      
1 25397U 98043D   26062.55859358  .00000117  00000+0  70908-4 0  9990
2 25397  99.0020  52.6812 0001875 129.2562 230.8782 14.24404107436291
ISS (ZARYA)             
1 25544U 98067A   26063.15679535  .00010207  00000+0  19684-3 0  9998
2 25544  51.6316  99.7104 0008201 155.0339 205.1047 15.48434477555473
PCSAT (NO-44)           
1 26931U 01043C   26062.69115843  .00000250  00000+0  12407-3 0  9995
2 26931  67.0509 157.1258 0007029 265.3966  94.6334 14.31908513275349
SAUDISAT 1C (SO-50)     
1 27607U 02058C   26063.15438645  .00002476  00000+0  30920-3 0  9995
2 27607  64.5519  93.8922 0075133 281.7019  77.5664 14.82756785248882
CUTE-1 (CO-55)          
1 27844U 03031E   26063.01394075  .00000483  00000+0  22828-3 0  9997
2 27844  98.6778  72.8832 0010497 127.2783 232.9354 14.24260748176700
CUBESAT XI-IV (CO-57)   
1 27848U 03031J   26062.94998598  .00000409  00000+0  19861-3 0  9993
2 27848  98.6808  72.6171 0010137 144.0340 216.1522 14.23556668176405
MOZHAETS 4 (RS22)       
1 27939U 03042A   26063.22843796  .00001806  00000+0  28787-3 0  9996
2 27939  98.3425 244.6376 0010292 239.1759 229.6712 14.73235056200091
CUBESAT XI-V            
1 28895U 05043F   26062.87117244  .00003015  00000+0  48470-3 0  9998
2 28895  98.2817 216.3857 0014408 175.6769 184.4564 14.72288602 86252
