[{"OBJECT_NAME":"OSCAR 7 (AO-7)","OBJECT_ID":"1974-089B","EPOCH":"2026-03-04T00:54:26.030592","MEAN_MOTION":12.53696271,"ECCENTRICITY":0.0012023,"INCLINATION":101.9969,"RA_OF_ASC_NODE":75.1668,"ARG_OF_PERICENTER":333.1147,"MEAN_ANOMALY":36.6395,"EPHEMERIS_TYPE":0,"CLASSIFICATION_TYPE":"U","NORAD_CAT_ID":7530,"ELEMENT_SET_NO":999,"REV_AT_EPOCH":34734,"BSTAR":1.0187e-5,"MEAN_MOTION_DOT":-4.5e-7,"MEAN_MOTION_DDOT":0},{"OBJECT_NAME":"PHASE 3B (AO-10)","OBJECT_ID":"1983-058B","EPOCH":"2026-03-02T12:48:52.290720","MEAN_MOTION":2.05874052,"ECCENTRICITY":0.6049007,"INCLINATION":25.932,"RA_OF_ASC_NODE":237.486,"ARG_OF_PERICENTER":86.0782,"MEAN_ANOMALY":336.7646,"EPHEMERIS_TYPE":0,"CLASSIFICATION_TYPE":"U","NORAD_CAT_ID":14129,"ELEMENT_SET_NO":999,"REV_AT_EPOCH":29329,"BSTAR":0,"MEAN_MOTION_DOT":-1.64e-6,"MEAN_MOTION_DDOT":0},{"OBJECT_NAME":"UOSAT 2 (UO-11)","OBJECT_ID":"1984-021B","EPOCH":"2026-03-03T19:59:34.226592","MEAN_MOTION":14.90481178,"ECCENTRICITY":0.0007881,"INCLINATION":97.7938,"RA_OF_ASC_NODE":29.6802,"ARG_OF_PERICENTER":161.1655,"MEAN_ANOMALY":198.9856,"EPHEMERIS_TYPE":0,"CLASSIFICATION_TYPE":"U","NORAD_CAT_ID":14781,"ELEMENT_SET_NO":999,"REV_AT_EPOCH":24143,"BSTAR":0.0002311,"MEAN_MOTION_DOT":2.201e-5,"MEAN_MOTION_DDOT":0},{"OBJECT_NAME":"LUSAT (LO-19)","OBJECT_ID":"1990-005G","EPOCH":"2026-03-04T00:56:40.659072","MEAN_MOTION":14.34085341,"ECCENTRICITY":0.0012121,"INCLINATION":98.8938,"RA_OF_ASC_NODE":81.9063,"ARG_OF_PERICENTER":150.1844,"MEAN_ANOMALY":210.0033,"EPHEMERIS_TYPE":0,"CLASSIFICATION_TYPE":"U","NORAD_CAT_ID":20442,"ELEMENT_SET_NO":999,"REV_AT_EPOCH":88732,"BSTAR":9.489e-5,"MEAN_MOTION_DOT":2.19e-6,"MEAN_MOTION_DDOT":0},{"OBJECT_NAME":"EYESAT A (AO-27)","OBJECT_ID":"1993-061C","EPOCH":"2026-03-04T04:23:25.265184","MEAN_MOTION":14.30911007,"ECCENTRICITY":0.0009192,"INCLINATION":98.6993,"RA_OF_ASC_NODE":130.5887,"ARG_OF_PERICENTER":53.8329,"MEAN_ANOMALY":306.3702,"EPHEMERIS_TYPE":0,"CLASSIFICATION_TYPE":"U","NORAD_CAT_ID":22825,"ELEMENT_SET_NO":999,"REV_AT_EPOCH":69198,"BSTAR":8.1158e-5,"MEAN_MOTION_DOT":1.68e-6,"MEAN_MOTION_DDOT":0},{"OBJECT_NAME":"ITAMSAT (IO-26)","OBJECT_ID":"1993-061D","EPOCH":"2026-03-04T02:58:00.494976","MEAN_MOTION":14.31334839,"ECCENTRICITY":0.0009502,"INCLINATION":98.6942,"RA_OF_ASC_NODE":130.4362,"ARG_OF_PERICENTER":38.5246,"MEAN_ANOMALY":321.6613,"EPHEMERIS_TYPE":0,"CLASSIFICATION_TYPE":"U","NORAD_CAT_ID":22826,"ELEMENT_SET_NO":999,"REV_AT_EPOCH":69228,"BSTAR":8.9649e-5,"MEAN_MOTION_DOT":1.93e-6,"MEAN_MOTION_DDOT":0},{"OBJECT_NAME":"RADIO ROSTO (RS15)","OBJECT_ID":"1994-085A","EPOCH":"2026-03-04T02:35:41.450496","MEAN_MOTION":11.27583849,"ECCENTRICITY":0.0152464,"INCLINATION":64.8146,"RA_OF_ASC_NODE":113.1611,"ARG_OF_PERICENTER":23.0804,"MEAN_ANOMALY":337.6876,"EPHEMERIS_TYPE":0,"CLASSIFICATION_TYPE":"U","NORAD_CAT_ID":23439,"ELEMENT_SET_NO":999,"REV_AT_EPOCH":28405,"BSTAR":0.00093098,"MEAN_MOTION_DOT":-1.0e-7,"MEAN_MOTION_DDOT":0},{"OBJECT_NAME":"JAS-2 (FO-29)","OBJECT_ID":"1996-046B","EPOCH":"2026-03-04T02:26:36.793536","MEAN_MOTION":13.5326845,"ECCENTRICITY":0.0350062,"INCLINATION":98.5389,"RA_OF_ASC_NODE":286.277,"ARG_OF_PERICENTER":9.2611,"MEAN_ANOMALY":351.4767,"EPHEMERIS_TYPE":0,"CLASSIFICATION_TYPE":"U","NORAD_CAT_ID":24278,"ELEMENT_SET_NO":999,"REV_AT_EPOCH":45895,"BSTAR":1.9528e-5,"MEAN_MOTION_DOT":-1.6e-7,"MEAN_MOTION_DDOT":0},{"OBJECT_NAME":"TECHSAT 1B (GO-32)","OBJECT_ID":"1998-043D","EPOCH":"2026-03-03T13:24:22.485312","MEAN_MOTION":14.24404107,"ECCENTRICITY":0.0001875,"INCLINATION":99.002,"RA_OF_ASC_NODE":52.6812,"ARG_OF_PERICENTER":129.2562,"MEAN_ANOMALY":230.8782,"EPHEMERIS_TYPE":0,"CLASSIFICATION_TYPE":"U","NORAD_CAT_ID":25397,"ELEMENT_SET_NO":999,"REV_AT_EPOCH":43629,"BSTAR":7.0908e-5,"MEAN_MOTION_DOT":1.17e-6,"MEAN_MOTION_DDOT":0},{"OBJECT_NAME":"ISS (ZARYA)","OBJECT_ID":"1998-067A","EPOCH":"2026-03-04T03:45:47.118240","MEAN_MOTION":15.48434477,"ECCENTRICITY":0.0008201,"INCLINATION":51.6316,"RA_OF_ASC_NODE":99.7104,"ARG_OF_PERICENTER":155.0339,"MEAN_ANOMALY":205.1047,"EPHEMERIS_TYPE":0,"CLASSIFICATION_TYPE":"U","NORAD_CAT_ID":25544,"ELEMENT_SET_NO":999,"REV_AT_EPOCH":55547,"BSTAR":0.00019684,"MEAN_MOTION_DOT":0.00010207,"MEAN_MOTION_DDOT":0},{"OBJECT_NAME":"PCSAT (NO-44)","OBJECT_ID":"2001-043C","EPOCH":"2026-03-03T16:35:16.088352","MEAN_MOTION":14.31908513,"ECCENTRICITY":0.0007029,"INCLINATION":67.0509,"RA_OF_ASC_NODE":157.1258,"ARG_OF_PERICENTER":265.3966,"MEAN_ANOMALY":94.6334,"EPHEMERIS_TYPE":0,"CLASSIFICATION_TYPE":"U","NORAD_CAT_ID":26931,"ELEMENT_SET_NO":999,"REV_AT_EPOCH":27534,"BSTAR":0.00012407023,"MEAN_MOTION_DOT":2.5e-6,"MEAN_MOTION_DDOT":0},{"OBJECT_NAME":"SAUDISAT 1C (SO-50)","OBJECT_ID":"2002-058C","EPOCH":"2026-03-04T03:42:18.989280","MEAN_MOTION":14.82756785,"ECCENTRICITY":0.0075133,"INCLINATION":64.5519,"RA_OF_ASC_NODE":93.8922,"ARG_OF_PERICENTER":281.7019,"MEAN_ANOMALY":77.5664,"EPHEMERIS_TYPE":0,"CLASSIFICATION_TYPE":"U","NORAD_CAT_ID":27607,"ELEMENT_SET_NO":999,"REV_AT_EPOCH":24888,"BSTAR":0.0003092,"MEAN_MOTION_DOT":2.476e-5,"MEAN_MOTION_DDOT":0},{"OBJECT_NAME":"CUTE-1 (CO-55)","OBJECT_ID":"2003-031E","EPOCH":"2026-03-04T00:20:04.480800","MEAN_MOTION":14.24260748,"ECCENTRICITY":0.0010497,"INCLINATION":98.6778,"RA_OF_ASC_NODE":72.8832,"ARG_OF_PERICENTER":127.2783,"MEAN_ANOMALY":232.9354,"EPHEMERIS_TYPE":0,"CLASSIFICATION_TYPE":"U","NORAD_CAT_ID":27844,"ELEMENT_SET_NO":999,"REV_AT_EPOCH":17670,"BSTAR":0.00022828,"MEAN_MOTION_DOT":4.83e-6,"MEAN_MOTION_DDOT":0},{"OBJECT_NAME":"CUBESAT XI-IV (CO-57)","OBJECT_ID":"2003-031J","EPOCH":"2026-03-03T22:47:58.788672","MEAN_MOTION":14.23556668,"ECCENTRICITY":0.0010137,"INCLINATION":98.6808,"RA_OF_ASC_NODE":72.6171,"ARG_OF_PERICENTER":144.034,"MEAN_ANOMALY":216.1522,"EPHEMERIS_TYPE":0,"CLASSIFICATION_TYPE":"U","NORAD_CAT_ID":27848,"ELEMENT_SET_NO":999,"REV_AT_EPOCH":17640,"BSTAR":0.00019861,"MEAN_MOTION_DOT":4.09e-6,"MEAN_MOTION_DDOT":0},{"OBJECT_NAME":"MOZHAETS 4 (RS22)","OBJECT_ID":"2003-042A","EPOCH":"2026-03-04T05:28:57.039744","MEAN_MOTION":14.73235056,"ECCENTRICITY":0.0010292,"INCLINATION":98.3425,"RA_OF_ASC_NODE":244.6376,"ARG_OF_PERICENTER":239.1759,"MEAN_ANOMALY":229.6712,"EPHEMERIS_TYPE":0,"CLASSIFICATION_TYPE":"U","NORAD_CAT_ID":27939,"ELEMENT_SET_NO":999,"REV_AT_EPOCH":20009,"BSTAR":0.00028787,"MEAN_MOTION_DOT":1.806e-5,"MEAN_MOTION_DDOT":0},{"OBJECT_NAME":"CUBESAT XI-V","OBJECT_ID":"2005-043F","EPOCH":"2026-03-03T20:54:29.298816","MEAN_MOTION":14.72288602,"ECCENTRICITY":0.0014408,"INCLINATION":98.2817,"RA_OF_ASC_NODE":216.3857,"ARG_OF_PERICENTER":175.6769,"MEAN_ANOMALY":184.4564,"EPHEMERIS_TYPE":0,"CLASSIFICATION_TYPE":"U","NORAD_CAT_ID":28895,"ELEMENT_SET_NO":999,"REV_AT_EPOCH":8625,"BSTAR":0.0004847,"MEAN_MOTION_DOT":3.015e-5,"MEAN_MOTION_DDOT":0}]
